{"type":"FeatureCollection","_source":"https://github.com/gregoiredavid/france-geojson (departements-avec-outre-mer), données OpenStreetMap, ODbL","_extrait_le":"2026-09-11","_note":"Contours simplifiés (Douglas-Peucker) et arrondis à 3 décimales, pour des encarts de 64 px ; bbox par territoire.","features":[
{"type":"Feature","id":"971","properties":{"code":"971","nom":"Guadeloupe","bbox":[-61.81,15.853,-61.005,16.514]},"geometry":{"type":"MultiPolygon","coordinates":[[[[-61.806,16.268],[-61.81,16.273],[-61.802,16.279],[-61.802,16.301],[-61.795,16.307],[-61.802,16.314],[-61.789,16.322],[-61.787,16.336],[-61.776,16.35],[-61.75,16.354],[-61.743,16.362],[-61.724,16.354],[-61.714,16.337],[-61.694,16.335],[-61.685,16.325],[-61.679,16.328],[-61.671,16.318],[-61.65,16.321],[-61.641,16.316],[-61.643,16.309],[-61.626,16.302],[-61.602,16.303],[-61.614,16.283],[-61.621,16.283],[-61.617,16.288],[-61.621,16.292],[-61.627,16.281],[-61.624,16.275],[-61.612,16.279],[-61.614,16.268],[-61.599,16.282],[-61.597,16.266],[-61.584,16.27],[-61.576,16.285],[-61.555,16.285],[-61.553,16.279],[-61.561,16.277],[-61.556,16.273],[-61.55,16.278],[-61.547,16.256],[-61.553,16.25],[-61.55,16.233],[-61.542,16.231],[-61.545,16.225],[-61.552,16.224],[-61.559,16.235],[-61.58,16.237],[-61.588,16.22],[-61.583,16.205],[-61.59,16.193],[-61.58,16.179],[-61.585,16.168],[-61.574,16.15],[-61.578,16.143],[-61.561,16.131],[-61.57,16.114],[-61.561,16.102],[-61.561,16.063],[-61.555,16.053],[-61.573,16.022],[-61.612,15.991],[-61.619,15.972],[-61.635,15.966],[-61.649,15.97],[-61.659,15.96],[-61.669,15.962],[-61.68,15.951],[-61.708,15.949],[-61.715,15.983],[-61.746,16.009],[-61.751,16.034],[-61.77,16.059],[-61.767,16.089],[-61.773,16.091],[-61.775,16.104],[-61.77,16.131],[-61.78,16.14],[-61.776,16.171],[-61.784,16.176],[-61.788,16.195],[-61.782,16.214],[-61.802,16.243],[-61.806,16.268]]],[[[-61.53,16.218],[-61.532,16.222],[-61.526,16.217],[-61.523,16.221],[-61.529,16.22],[-61.533,16.234],[-61.55,16.252],[-61.547,16.28],[-61.554,16.288],[-61.541,16.29],[-61.547,16.301],[-61.537,16.306],[-61.53,16.339],[-61.523,16.345],[-61.508,16.342],[-61.506,16.35],[-61.494,16.354],[-61.5,16.355],[-61.496,16.361],[-61.501,16.364],[-61.495,16.377],[-61.506,16.389],[-61.509,16.386],[-61.526,16.395],[-61.541,16.438],[-61.535,16.455],[-61.465,16.514],[-61.461,16.499],[-61.444,16.5],[-61.441,16.489],[-61.41,16.467],[-61.398,16.424],[-61.405,16.407],[-61.405,16.385],[-61.38,16.344],[-61.369,16.335],[-61.345,16.335],[-61.342,16.33],[-61.334,16.334],[-61.297,16.328],[-61.297,16.323],[-61.26,16.304],[-61.243,16.273],[-61.174,16.245],[-61.256,16.256],[-61.294,16.243],[-61.339,16.242],[-61.37,16.232],[-61.379,16.222],[-61.39,16.224],[-61.394,16.217],[-61.438,16.209],[-61.464,16.197],[-61.507,16.206],[-61.51,16.216],[-61.522,16.213],[-61.53,16.218]]],[[[-61.323,15.95],[-61.319,15.976],[-61.307,15.979],[-61.291,16.003],[-61.276,16.007],[-61.233,15.986],[-61.224,15.964],[-61.201,15.945],[-61.196,15.921],[-61.205,15.901],[-61.234,15.879],[-61.279,15.867],[-61.315,15.881],[-61.331,15.898],[-61.337,15.941],[-61.323,15.95]]],[[[-61.593,15.853],[-61.605,15.859],[-61.6,15.865],[-61.584,15.864],[-61.582,15.881],[-61.578,15.873],[-61.572,15.883],[-61.566,15.871],[-61.577,15.867],[-61.578,15.855],[-61.588,15.859],[-61.593,15.853]]],[[[-61.01,16.35],[-61.005,16.332],[-61.049,16.308],[-61.097,16.291],[-61.098,16.303],[-61.091,16.312],[-61.079,16.312],[-61.075,16.319],[-61.01,16.35]]]]}},
{"type":"Feature","id":"972","properties":{"code":"972","nom":"Martinique","bbox":[-61.227,14.395,-60.809,14.878]},"geometry":{"type":"MultiPolygon","coordinates":[[[[-61.118,14.628],[-61.136,14.633],[-61.157,14.657],[-61.185,14.709],[-61.177,14.746],[-61.205,14.78],[-61.215,14.782],[-61.227,14.803],[-61.226,14.831],[-61.207,14.862],[-61.181,14.875],[-61.139,14.878],[-61.098,14.863],[-61.057,14.834],[-61.043,14.837],[-61.029,14.83],[-61.032,14.823],[-61.023,14.822],[-61.019,14.809],[-61.001,14.808],[-61.004,14.798],[-60.987,14.778],[-60.98,14.778],[-60.983,14.774],[-60.968,14.761],[-60.958,14.737],[-60.948,14.754],[-60.935,14.762],[-60.92,14.758],[-60.888,14.78],[-60.875,14.775],[-60.873,14.758],[-60.879,14.758],[-60.884,14.768],[-60.897,14.761],[-60.888,14.753],[-60.899,14.744],[-60.891,14.74],[-60.896,14.733],[-60.91,14.736],[-60.912,14.744],[-60.926,14.751],[-60.943,14.743],[-60.944,14.738],[-60.938,14.734],[-60.944,14.733],[-60.945,14.723],[-60.934,14.716],[-60.925,14.721],[-60.933,14.708],[-60.914,14.716],[-60.914,14.703],[-60.901,14.699],[-60.911,14.688],[-60.929,14.687],[-60.925,14.679],[-60.937,14.684],[-60.943,14.669],[-60.929,14.653],[-60.92,14.655],[-60.912,14.666],[-60.909,14.662],[-60.897,14.665],[-60.894,14.659],[-60.89,14.666],[-60.883,14.665],[-60.886,14.653],[-60.889,14.657],[-60.89,14.651],[-60.903,14.653],[-60.906,14.648],[-60.889,14.641],[-60.895,14.639],[-60.891,14.631],[-60.898,14.629],[-60.899,14.621],[-60.887,14.621],[-60.887,14.615],[-60.87,14.62],[-60.878,14.612],[-60.868,14.601],[-60.872,14.596],[-60.859,14.589],[-60.852,14.595],[-60.846,14.583],[-60.852,14.58],[-60.842,14.579],[-60.854,14.575],[-60.852,14.568],[-60.843,14.571],[-60.849,14.567],[-60.841,14.567],[-60.845,14.559],[-60.825,14.568],[-60.839,14.55],[-60.827,14.537],[-60.837,14.533],[-60.824,14.53],[-60.826,14.521],[-60.835,14.523],[-60.837,14.512],[-60.824,14.513],[-60.823,14.496],[-60.811,14.48],[-60.824,14.472],[-60.809,14.46],[-60.824,14.452],[-60.835,14.423],[-60.849,14.427],[-60.839,14.411],[-60.846,14.413],[-60.856,14.397],[-60.869,14.395],[-60.878,14.397],[-60.893,14.419],[-60.88,14.438],[-60.884,14.452],[-60.878,14.446],[-60.872,14.448],[-60.873,14.457],[-60.864,14.455],[-60.866,14.47],[-60.877,14.472],[-60.899,14.448],[-60.911,14.461],[-60.91,14.469],[-60.917,14.472],[-60.934,14.462],[-60.956,14.465],[-60.965,14.473],[-60.974,14.468],[-60.98,14.482],[-60.985,14.473],[-60.992,14.479],[-60.992,14.466],[-61.004,14.479],[-61.006,14.471],[-61.019,14.481],[-61.033,14.477],[-61.056,14.454],[-61.07,14.468],[-61.08,14.469],[-61.08,14.489],[-61.091,14.493],[-61.085,14.505],[-61.101,14.508],[-61.088,14.534],[-61.077,14.542],[-61.065,14.542],[-61.052,14.562],[-61.052,14.551],[-61.038,14.557],[-61.037,14.55],[-61.044,14.547],[-61.027,14.535],[-61.023,14.54],[-61.014,14.535],[-61.008,14.542],[-61.007,14.536],[-60.994,14.547],[-60.997,14.551],[-60.99,14.55],[-60.998,14.561],[-61.011,14.561],[-61.01,14.578],[-61.024,14.585],[-61.016,14.596],[-61.02,14.601],[-61.014,14.602],[-61.022,14.603],[-61.019,14.612],[-61.04,14.606],[-61.037,14.593],[-61.049,14.598],[-61.06,14.595],[-61.059,14.604],[-61.066,14.597],[-61.071,14.603],[-61.09,14.599],[-61.118,14.628]]]]}},
{"type":"Feature","id":"973","properties":{"code":"973","nom":"Guyane","bbox":[-54.602,2.112,-51.619,5.745]},"geometry":{"type":"MultiPolygon","coordinates":[[[[-53.469,5.565],[-53.28,5.543],[-53.251,5.521],[-53.299,5.549],[-53.275,5.563],[-53.131,5.508],[-53.072,5.468],[-53.02,5.458],[-52.996,5.432],[-52.997,5.46],[-52.941,5.45],[-52.855,5.378],[-52.832,5.333],[-52.666,5.2],[-52.628,5.146],[-52.556,5.107],[-52.552,5.088],[-52.416,4.982],[-52.365,4.921],[-52.302,4.951],[-52.186,4.822],[-52.146,4.791],[-52.11,4.785],[-52.006,4.702],[-51.916,4.669],[-51.862,4.672],[-51.836,4.654],[-51.79,4.591],[-51.752,4.418],[-51.712,4.388],[-51.692,4.395],[-51.719,4.353],[-51.71,4.312],[-51.661,4.227],[-51.619,4.201],[-51.648,4.08],[-51.676,4.036],[-51.776,3.976],[-51.799,3.887],[-51.874,3.803],[-51.921,3.778],[-51.922,3.724],[-51.973,3.705],[-51.988,3.628],[-52.073,3.516],[-52.191,3.297],[-52.234,3.241],[-52.26,3.253],[-52.293,3.226],[-52.303,3.173],[-52.33,3.172],[-52.331,3.139],[-52.353,3.128],[-52.326,3.078],[-52.393,2.945],[-52.379,2.913],[-52.423,2.89],[-52.529,2.652],[-52.555,2.64],[-52.528,2.581],[-52.537,2.559],[-52.561,2.55],[-52.552,2.521],[-52.594,2.478],[-52.618,2.475],[-52.61,2.452],[-52.646,2.432],[-52.661,2.374],[-52.856,2.282],[-52.904,2.187],[-52.935,2.194],[-52.941,2.179],[-52.988,2.168],[-53.052,2.19],[-53.08,2.222],[-53.131,2.225],[-53.224,2.201],[-53.245,2.211],[-53.274,2.19],[-53.279,2.219],[-53.227,2.264],[-53.301,2.307],[-53.319,2.345],[-53.332,2.334],[-53.34,2.352],[-53.356,2.348],[-53.372,2.313],[-53.431,2.289],[-53.461,2.254],[-53.547,2.253],[-53.604,2.281],[-53.657,2.279],[-53.652,2.296],[-53.665,2.302],[-53.683,2.293],[-53.699,2.311],[-53.74,2.306],[-53.748,2.32],[-53.721,2.35],[-53.751,2.358],[-53.736,2.372],[-53.766,2.376],[-53.835,2.332],[-53.813,2.311],[-53.883,2.309],[-53.885,2.275],[-53.905,2.261],[-53.934,2.281],[-53.944,2.215],[-53.99,2.209],[-54.024,2.181],[-54.066,2.197],[-54.101,2.112],[-54.169,2.129],[-54.187,2.179],[-54.224,2.15],[-54.342,2.152],[-54.339,2.169],[-54.363,2.18],[-54.362,2.212],[-54.416,2.195],[-54.427,2.215],[-54.449,2.204],[-54.477,2.213],[-54.496,2.249],[-54.548,2.27],[-54.514,2.281],[-54.534,2.293],[-54.539,2.325],[-54.588,2.322],[-54.602,2.337],[-54.57,2.354],[-54.534,2.334],[-54.506,2.338],[-54.505,2.391],[-54.476,2.435],[-54.42,2.437],[-54.387,2.47],[-54.349,2.525],[-54.318,2.63],[-54.266,2.689],[-54.265,2.723],[-54.208,2.778],[-54.198,2.804],[-54.208,2.831],[-54.186,2.838],[-54.179,2.859],[-54.195,2.885],[-54.191,2.925],[-54.161,2.969],[-54.181,2.984],[-54.17,3.016],[-54.195,3.065],[-54.174,3.073],[-54.174,3.109],[-54.192,3.135],[-54.211,3.128],[-54.201,3.142],[-54.214,3.15],[-54.189,3.206],[-54.175,3.206],[-54.136,3.266],[-54.064,3.313],[-54.059,3.385],[-54.012,3.427],[-54.009,3.536],[-53.981,3.608],[-54.007,3.649],[-54.046,3.633],[-54.083,3.674],[-54.079,3.714],[-54.122,3.793],[-54.198,3.806],[-54.192,3.847],[-54.237,3.861],[-54.249,3.909],[-54.29,3.936],[-54.318,4.015],[-54.358,4.05],[-54.323,4.144],[-54.391,4.187],[-54.387,4.354],[-54.414,4.375],[-54.442,4.371],[-54.432,4.463],[-54.45,4.526],[-54.425,4.555],[-54.415,4.606],[-54.438,4.643],[-54.424,4.665],[-54.427,4.715],[-54.466,4.74],[-54.479,4.904],[-54.444,4.94],[-54.416,5.085],[-54.375,5.108],[-54.279,5.263],[-54.184,5.323],[-54.019,5.521],[-54.004,5.573],[-54.015,5.652],[-53.968,5.745],[-53.799,5.724],[-53.593,5.608],[-53.469,5.565]]]]}},
{"type":"Feature","id":"974","properties":{"code":"974","nom":"La Réunion","bbox":[55.217,-21.389,55.837,-20.872]},"geometry":{"type":"MultiPolygon","coordinates":[[[[55.254,-21.11],[55.221,-21.077],[55.226,-21.053],[55.217,-21.038],[55.235,-21.018],[55.257,-21.016],[55.277,-21.001],[55.283,-20.978],[55.277,-20.955],[55.281,-20.937],[55.282,-20.945],[55.289,-20.935],[55.286,-20.931],[55.283,-20.935],[55.287,-20.924],[55.318,-20.928],[55.315,-20.933],[55.325,-20.935],[55.322,-20.926],[55.345,-20.922],[55.395,-20.882],[55.451,-20.872],[55.47,-20.884],[55.503,-20.882],[55.542,-20.895],[55.592,-20.896],[55.621,-20.911],[55.648,-20.916],[55.666,-20.926],[55.697,-20.966],[55.703,-21.018],[55.732,-21.05],[55.739,-21.072],[55.78,-21.122],[55.826,-21.144],[55.835,-21.16],[55.837,-21.183],[55.826,-21.186],[55.825,-21.203],[55.809,-21.228],[55.802,-21.26],[55.808,-21.287],[55.804,-21.31],[55.807,-21.337],[55.775,-21.366],[55.756,-21.363],[55.709,-21.377],[55.682,-21.375],[55.671,-21.384],[55.647,-21.389],[55.633,-21.383],[55.609,-21.387],[55.587,-21.372],[55.551,-21.374],[55.539,-21.364],[55.501,-21.351],[55.484,-21.352],[55.479,-21.344],[55.46,-21.341],[55.449,-21.328],[55.42,-21.322],[55.391,-21.292],[55.335,-21.278],[55.331,-21.259],[55.293,-21.23],[55.281,-21.202],[55.287,-21.161],[55.273,-21.15],[55.271,-21.132],[55.254,-21.11]]]]}},
{"type":"Feature","id":"976","properties":{"code":"976","nom":"Mayotte","bbox":[45.04,-13.0,45.3,-12.651]},"geometry":{"type":"MultiPolygon","coordinates":[[[[45.1,-12.802],[45.113,-12.794],[45.098,-12.792],[45.098,-12.784],[45.094,-12.785],[45.102,-12.78],[45.102,-12.767],[45.092,-12.771],[45.087,-12.765],[45.077,-12.767],[45.06,-12.751],[45.052,-12.756],[45.043,-12.744],[45.058,-12.727],[45.04,-12.722],[45.05,-12.712],[45.052,-12.7],[45.062,-12.702],[45.073,-12.692],[45.067,-12.681],[45.081,-12.681],[45.093,-12.657],[45.105,-12.651],[45.105,-12.662],[45.088,-12.67],[45.105,-12.677],[45.102,-12.683],[45.112,-12.686],[45.115,-12.696],[45.131,-12.7],[45.123,-12.706],[45.132,-12.721],[45.121,-12.723],[45.125,-12.727],[45.14,-12.735],[45.141,-12.728],[45.148,-12.728],[45.155,-12.737],[45.166,-12.718],[45.177,-12.73],[45.214,-12.732],[45.213,-12.741],[45.237,-12.753],[45.24,-12.763],[45.234,-12.773],[45.23,-12.773],[45.23,-12.762],[45.226,-12.774],[45.238,-12.785],[45.221,-12.79],[45.203,-12.81],[45.204,-12.82],[45.195,-12.824],[45.196,-12.833],[45.184,-12.842],[45.196,-12.845],[45.202,-12.863],[45.212,-12.863],[45.213,-12.873],[45.222,-12.872],[45.217,-12.886],[45.196,-12.897],[45.192,-12.906],[45.205,-12.92],[45.186,-12.917],[45.176,-12.933],[45.179,-12.943],[45.169,-12.943],[45.177,-12.965],[45.193,-12.976],[45.204,-12.975],[45.194,-12.987],[45.181,-12.984],[45.178,-12.995],[45.172,-12.978],[45.16,-12.973],[45.149,-13.0],[45.142,-13.0],[45.134,-12.989],[45.126,-12.996],[45.125,-12.98],[45.114,-12.982],[45.109,-12.994],[45.108,-12.957],[45.093,-12.967],[45.079,-12.963],[45.095,-12.953],[45.104,-12.933],[45.098,-12.925],[45.087,-12.93],[45.071,-12.899],[45.099,-12.899],[45.106,-12.923],[45.137,-12.938],[45.149,-12.934],[45.155,-12.924],[45.139,-12.891],[45.093,-12.853],[45.103,-12.844],[45.121,-12.84],[45.101,-12.834],[45.106,-12.82],[45.1,-12.802]]],[[[45.271,-12.793],[45.255,-12.781],[45.268,-12.789],[45.285,-12.759],[45.3,-12.783],[45.294,-12.788],[45.297,-12.795],[45.285,-12.803],[45.286,-12.818],[45.271,-12.793]]]]}}
]}
